{"type": "FeatureCollection", "features": [{"type": "Feature", "properties": {"norad_id": 25590, "name": "COSMOS 2361", "group": "musson", "lat": 17.05356802417589, "lon": -11.20375714883717, "alt_km": 992.9219732494412, "timestamp": "2025-12-09T07:41:33.477830+00:00", "meta": {"OBJECT_NAME": "COSMOS 2361", "OBJECT_ID": "1998-076A", "EPOCH": "2025-12-08T23:10:58.205280", "MEAN_MOTION": 13.73216844, "ECCENTRICITY": 0.00300628, "INCLINATION": 82.9338, "RA_OF_ASC_NODE": 346.8779, "ARG_OF_PERICENTER": 276.5709, "MEAN_ANOMALY": 148.5033, "EPHEMERIS_TYPE": 0, "CLASSIFICATION_TYPE": "U", "NORAD_CAT_ID": 25590, "ELEMENT_SET_NO": 999, "REV_AT_EPOCH": 35059, "BSTAR": 7.7115596e-05, "MEAN_MOTION_DOT": 8.6e-07, "MEAN_MOTION_DDOT": 0}, "tle": {"line1": "1 25590U 98076A   25342.96595145  .00000086  00000+0  77116-4 0  9990", "line2": "2 25590  82.9338 346.8779 0030062 276.5709 148.5033 13.73216844350592"}}, "geometry": {"type": "Point", "coordinates": [-11.20375714883717, 17.05356802417589]}}, {"type": "Feature", "properties": {"norad_id": 26818, "name": "COSMOS 2378", "group": "musson", "lat": 76.04785410453879, "lon": 32.24132358510558, "alt_km": 994.7623806955862, "timestamp": "2025-12-09T07:41:33.477852+00:00", "meta": {"OBJECT_NAME": "COSMOS 2378", "OBJECT_ID": "2001-023A", "EPOCH": "2025-12-08T19:55:11.034048", "MEAN_MOTION": 13.74141511, "ECCENTRICITY": 0.00321841, "INCLINATION": 82.9273, "RA_OF_ASC_NODE": 2.6241, "ARG_OF_PERICENTER": 215.9787, "MEAN_ANOMALY": 316.963, "EPHEMERIS_TYPE": 0, "CLASSIFICATION_TYPE": "U", "NORAD_CAT_ID": 26818, "ELEMENT_SET_NO": 999, "REV_AT_EPOCH": 22869, "BSTAR": 6.0047359e-05, "MEAN_MOTION_DOT": 7.2e-07, "MEAN_MOTION_DDOT": 0}, "tle": {"line1": "1 26818U 01023A   25342.82998882  .00000072  00000+0  60047-4 0  9990", "line2": "2 26818  82.9273   2.6241 0032184 215.9787 316.9630 13.74141511228693"}}, "geometry": {"type": "Point", "coordinates": [32.24132358510558, 76.04785410453879]}}, {"type": "Feature", "properties": {"norad_id": 27436, "name": "COSMOS 2389", "group": "musson", "lat": -82.52405736747558, "lon": -121.04842542086594, "alt_km": 1020.9306542471159, "timestamp": "2025-12-09T07:41:33.477866+00:00", "meta": {"OBJECT_NAME": "COSMOS 2389", "OBJECT_ID": "2002-026A", "EPOCH": "2025-12-08T23:40:49.146816", "MEAN_MOTION": 13.75154006, "ECCENTRICITY": 0.00477053, "INCLINATION": 82.9499, "RA_OF_ASC_NODE": 309.7632, "ARG_OF_PERICENTER": 70.9381, "MEAN_ANOMALY": 349.9653, "EPHEMERIS_TYPE": 0, "CLASSIFICATION_TYPE": "U", "NORAD_CAT_ID": 27436, "ELEMENT_SET_NO": 999, "REV_AT_EPOCH": 18097, "BSTAR": 8.1346407e-05, "MEAN_MOTION_DOT": 9.4e-07, "MEAN_MOTION_DDOT": 0}, "tle": {"line1": "1 27436U 02026A   25342.98667994  .00000094  00000+0  81346-4 0  9994", "line2": "2 27436  82.9499 309.7632 0047705  70.9381 349.9653 13.75154006180972"}}, "geometry": {"type": "Point", "coordinates": [-121.04842542086594, -82.52405736747558]}}, {"type": "Feature", "properties": {"norad_id": 27818, "name": "COSMOS 2398", "group": "musson", "lat": -77.5134392177441, "lon": 129.20085197395508, "alt_km": 1016.324384631037, "timestamp": "2025-12-09T07:41:33.477878+00:00", "meta": {"OBJECT_NAME": "COSMOS 2398", "OBJECT_ID": "2003-023A", "EPOCH": "2025-12-08T22:00:01.531296", "MEAN_MOTION": 13.72385084, "ECCENTRICITY": 0.00324483, "INCLINATION": 82.9482, "RA_OF_ASC_NODE": 275.5155, "ARG_OF_PERICENTER": 122.0308, "MEAN_ANOMALY": 303.2785, "EPHEMERIS_TYPE": 0, "CLASSIFICATION_TYPE": "U", "NORAD_CAT_ID": 27818, "ELEMENT_SET_NO": 999, "REV_AT_EPOCH": 12764, "BSTAR": 8.930733e-05, "MEAN_MOTION_DOT": 9.7e-07, "MEAN_MOTION_DDOT": 0}, "tle": {"line1": "1 27818U 03023A   25342.91668439  .00000097  00000+0  89307-4 0  9992", "line2": "2 27818  82.9482 275.5155 0032448 122.0308 303.2785 13.72385084127647"}}, "geometry": {"type": "Point", "coordinates": [129.20085197395508, -77.5134392177441]}}, {"type": "Feature", "properties": {"norad_id": 28380, "name": "COSMOS 2407", "group": "musson", "lat": 46.182909919716074, "lon": -137.1781075088514, "alt_km": 944.5309283915894, "timestamp": "2025-12-09T07:41:33.477889+00:00", "meta": {"OBJECT_NAME": "COSMOS 2407", "OBJECT_ID": "2004-028A", "EPOCH": "2025-12-08T16:00:58.962240", "MEAN_MOTION": 13.76313059, "ECCENTRICITY": 0.0040444, "INCLINATION": 82.9612, "RA_OF_ASC_NODE": 215.9077, "ARG_OF_PERICENTER": 65.8914, "MEAN_ANOMALY": 346.471, "EPHEMERIS_TYPE": 0, "CLASSIFICATION_TYPE": "U", "NORAD_CAT_ID": 28380, "ELEMENT_SET_NO": 999, "REV_AT_EPOCH": 7367, "BSTAR": 9.5579e-05, "MEAN_MOTION_DOT": 1.09e-06, "MEAN_MOTION_DDOT": 0}, "tle": {"line1": "1 28380U 04028A   25342.66734910  .00000109  00000+0  95579-4 0  9995", "line2": "2 28380  82.9612 215.9077 0040444  65.8914 346.4710 13.76313059 73677"}}, "geometry": {"type": "Point", "coordinates": [-137.1781075088514, 46.182909919716074]}}, {"type": "Feature", "properties": {"norad_id": 28521, "name": "COSMOS 2414", "group": "musson", "lat": 11.814391704421285, "lon": 5.762099699090183, "alt_km": 909.057909897404, "timestamp": "2025-12-09T07:41:33.477901+00:00", "meta": {"OBJECT_NAME": "COSMOS 2414", "OBJECT_ID": "2005-002A", "EPOCH": "2025-12-08T22:14:11.729760", "MEAN_MOTION": 13.87902188, "ECCENTRICITY": 0.00406742, "INCLINATION": 82.9495, "RA_OF_ASC_NODE": 187.5434, "ARG_OF_PERICENTER": 150.3858, "MEAN_ANOMALY": 209.9621, "EPHEMERIS_TYPE": 0, "CLASSIFICATION_TYPE": "U", "NORAD_CAT_ID": 28521, "ELEMENT_SET_NO": 999, "REV_AT_EPOCH": 5742, "BSTAR": 7.0394839e-05, "MEAN_MOTION_DOT": 1e-06, "MEAN_MOTION_DDOT": 0}, "tle": {"line1": "1 28521U 05002A   25342.92652465  .00000100  00000+0  70395-4 0  9998", "line2": "2 28521  82.9495 187.5434 0040674 150.3858 209.9621 13.87902188 57424"}}, "geometry": {"type": "Point", "coordinates": [5.762099699090183, 11.814391704421285]}}, {"type": "Feature", "properties": {"norad_id": 32052, "name": "COSMOS 2429", "group": "musson", "lat": 78.60616290797486, "lon": 128.13931051205955, "alt_km": 955.8379416924572, "timestamp": "2025-12-09T07:41:33.477911+00:00", "meta": {"OBJECT_NAME": "COSMOS 2429", "OBJECT_ID": "2007-038A", "EPOCH": "2025-12-08T22:29:06.638496", "MEAN_MOTION": 13.75148759, "ECCENTRICITY": 0.00394244, "INCLINATION": 82.9802, "RA_OF_ASC_NODE": 346.1125, "ARG_OF_PERICENTER": 48.2125, "MEAN_ANOMALY": 312.2388, "EPHEMERIS_TYPE": 0, "CLASSIFICATION_TYPE": "U", "NORAD_CAT_ID": 32052, "ELEMENT_SET_NO": 999, "REV_AT_EPOCH": 91550, "BSTAR": 5.9885546e-05, "MEAN_MOTION_DOT": 7.3e-07, "MEAN_MOTION_DDOT": 0}, "tle": {"line1": "1 32052U 07038A   25342.93688239  .00000073  00000+0  59886-4 0  9993", "line2": "2 32052  82.9802 346.1125 0039424  48.2125 312.2388 13.75148759915506"}}, "geometry": {"type": "Point", "coordinates": [128.13931051205955, 78.60616290797486]}}, {"type": "Feature", "properties": {"norad_id": 35635, "name": "COSMOS 2454", "group": "musson", "lat": -13.367953185821195, "lon": -7.079276670195342, "alt_km": 938.6126608609584, "timestamp": "2025-12-09T07:41:33.477923+00:00", "meta": {"OBJECT_NAME": "COSMOS 2454", "OBJECT_ID": "2009-039A", "EPOCH": "2025-12-08T18:43:22.690272", "MEAN_MOTION": 13.8992788, "ECCENTRICITY": 0.00204814, "INCLINATION": 82.9556, "RA_OF_ASC_NODE": 171.6466, "ARG_OF_PERICENTER": 84.3022, "MEAN_ANOMALY": 286.3458, "EPHEMERIS_TYPE": 0, "CLASSIFICATION_TYPE": "U", "NORAD_CAT_ID": 35635, "ELEMENT_SET_NO": 999, "REV_AT_EPOCH": 83095, "BSTAR": 6.8597696e-05, "MEAN_MOTION_DOT": 1.01e-06, "MEAN_MOTION_DDOT": 0}, "tle": {"line1": "1 35635U 09039A   25342.78012373  .00000101  00000+0  68598-4 0  9991", "line2": "2 35635  82.9556 171.6466 0020481  84.3022 286.3458 13.89927880830950"}}, "geometry": {"type": "Point", "coordinates": [-7.079276670195342, -13.367953185821195]}}, {"type": "Feature", "properties": {"norad_id": 36519, "name": "COSMOS 2463", "group": "musson", "lat": 79.18278130489864, "lon": 168.94234776675424, "alt_km": 1010.5253173103747, "timestamp": "2025-12-09T07:41:33.477933+00:00", "meta": {"OBJECT_NAME": "COSMOS 2463", "OBJECT_ID": "2010-017A", "EPOCH": "2025-12-08T16:01:01.162848", "MEAN_MOTION": 13.71648756, "ECCENTRICITY": 0.0034885, "INCLINATION": 82.9616, "RA_OF_ASC_NODE": 29.7051, "ARG_OF_PERICENTER": 299.7752, "MEAN_ANOMALY": 174.897, "EPHEMERIS_TYPE": 0, "CLASSIFICATION_TYPE": "U", "NORAD_CAT_ID": 36519, "ELEMENT_SET_NO": 999, "REV_AT_EPOCH": 78181, "BSTAR": 9.0474e-05, "MEAN_MOTION_DOT": 9.7e-07, "MEAN_MOTION_DDOT": 0}, "tle": {"line1": "1 36519U 10017A   25342.66737457  .00000097  00000+0  90474-4 0  9997", "line2": "2 36519  82.9616  29.7051 0034885 299.7752 174.8970 13.71648756781810"}}, "geometry": {"type": "Point", "coordinates": [168.94234776675424, 79.18278130489864]}}]}